{
    "links": {
        "self": "http://www.neowsapp.com/rest/v1/neo/3592120?api_key=iIulBulltgU6a56xZRHN4H3l9WmuAYTsLGpBGhQ2"
    },
    "id": "3592120",
    "neo_reference_id": "3592120",
    "name": "(2012 AC3)",
    "designation": "2012 AC3",
    "nasa_jpl_url": "http://ssd.jpl.nasa.gov/sbdb.cgi?sstr=3592120",
    "absolute_magnitude_h": 23.0,
    "estimated_diameter": {
        "kilometers": {
            "estimated_diameter_min": 0.0667659413,
            "estimated_diameter_max": 0.1492931834
        },
        "meters": {
            "estimated_diameter_min": 66.7659413495,
            "estimated_diameter_max": 149.2931834393
        },
        "miles": {
            "estimated_diameter_min": 0.0414864197,
            "estimated_diameter_max": 0.0927664547
        },
        "feet": {
            "estimated_diameter_min": 219.0483710172,
            "estimated_diameter_max": 489.807047955
        }
    },
    "is_potentially_hazardous_asteroid": false,
    "close_approach_data": [
        {
            "close_approach_date": "1972-03-14",
            "close_approach_date_full": "1972-Mar-14 12:03",
            "epoch_date_close_approach": 69422580000,
            "relative_velocity": {
                "kilometers_per_second": "14.9779269811",
                "kilometers_per_hour": "53920.5371318686",
                "miles_per_hour": "33504.1248639658"
            },
            "miss_distance": {
                "astronomical": "0.3841941601",
                "lunar": "149.4515282789",
                "kilometers": "57474628.017398987",
                "miles": "35713077.8125885406"
            },
            "orbiting_body": "Earth"
        },
        {
            "close_approach_date": "1980-12-18",
            "close_approach_date_full": "1980-Dec-18 06:19",
            "epoch_date_close_approach": 345968340000,
            "relative_velocity": {
                "kilometers_per_second": "16.8392680027",
                "kilometers_per_hour": "60621.364809797",
                "miles_per_hour": "37667.7585952875"
            },
            "miss_distance": {
                "astronomical": "0.4060466302",
                "lunar": "157.9521391478",
                "kilometers": "60743710.998597674",
                "miles": "37744391.7838249412"
            },
            "orbiting_body": "Earth"
        },
        {
            "close_approach_date": "2012-01-23",
            "close_approach_date_full": "2012-Jan-23 10:28",
            "epoch_date_close_approach": 1327314480000,
            "relative_velocity": {
                "kilometers_per_second": "5.8773316887",
                "kilometers_per_hour": "21158.3940791784",
                "miles_per_hour": "13147.0032543651"
            },
            "miss_distance": {
                "astronomical": "0.0724499044",
                "lunar": "28.1830128116",
                "kilometers": "10838351.379943628",
                "miles": "6734639.2581249464"
            },
            "orbiting_body": "Earth"
        },
        {
            "close_approach_date": "2051-12-27",
            "close_approach_date_full": "2051-Dec-27 02:44",
            "epoch_date_close_approach": 2587257840000,
            "relative_velocity": {
                "kilometers_per_second": "13.153214347",
                "kilometers_per_hour": "47351.5716490578",
                "miles_per_hour": "29422.4251727159"
            },
            "miss_distance": {
                "astronomical": "0.2779696169",
                "lunar": "108.1301809741",
                "kilometers": "41583662.612956003",
                "miles": "25838889.7824507214"
            },
            "orbiting_body": "Earth"
        }
    ],
    "orbital_data": {
        "orbit_id": "19",
        "orbit_determination_date": "2017-04-06 08:51:31",
        "first_observation_date": "2012-01-03",
        "last_observation_date": "2012-02-11",
        "data_arc_in_days": 39,
        "observations_used": 102,
        "orbit_uncertainty": "6",
        "minimum_orbit_intersection": ".0646764",
        "jupiter_tisserand_invariant": "4.100",
        "epoch_osculation": "2459000.5",
        "eccentricity": ".3947229809361056",
        "semi_major_axis": "1.70181175108011",
        "inclination": "7.458018954339521",
        "ascending_node_longitude": "282.7298777985092",
        "orbital_period": "810.8970194107783",
        "perihelion_distance": "1.030067543701675",
        "perihelion_argument": "209.0110726405382",
        "aphelion_distance": "2.373555958458546",
        "perihelion_time": "2459203.947611180018",
        "mean_anomaly": "269.6788639351202",
        "mean_motion": ".4439527971894466",
        "equinox": "J2000",
        "orbit_class": {
            "orbit_class_type": "AMO",
            "orbit_class_description": "Near-Earth asteroid orbits similar to that of 1221 Amor",
            "orbit_class_range": "1.017 AU < q (perihelion) < 1.3 AU"
        }
    },
    "is_sentry_object": false
}